LEMUR-2-AMANDA-SVANTE   
1 48269U 21034B   26068.77637527  .00030872  00000+0  11134-2 0  9996
2 48269  97.5829 144.8625 0002703 205.4721 154.6385 15.28469003265849
STARLINK-32521          
1 62117U 24222D   26068.51871509  .00023048  00000+0  84429-3 0  9993
2 62117  43.0001 133.5044 0001680 271.2024  88.8635 15.27585680 72767
